ONEWEB-0207             
1 48242U 21031AJ  24195.92598411 -.00000071  00000+0 -22486-3 0  9991
2 48242  87.8945  69.5942 0001789  88.3413 271.7922 13.14503161155905
ONEWEB-0208             
1 48243U 21031AK  24195.90773980 -.00000216  00000+0 -61721-3 0  9992
2 48243  87.8946  69.6128 0001629  79.8254 280.3059 13.14502452155915
ONEWEB-0200             
1 48244U 21031AL  24195.94738982  .00000251  00000+0  64286-3 0  9996
2 48244  87.8945  69.6019 0001570  76.7576 283.3729 13.14503088155847
ONEWEB-0217             
1 48245U 21031AM  24195.88712784  .00000125  00000+0  30283-3 0  9992
2 48245  87.8946  69.5985 0001518  73.5229 286.6068 13.14502951155785
ONEWEB-0211             
1 48767U 21045A   24195.94502514  .00000156  00000+0  38057-3 0  9992
2 48767  87.9019  39.1201 0001795  82.4975 277.6359 13.15548411151954
ONEWEB-0223             
1 48768U 21045B   24195.81508772 -.00000033  00000+0 -12277-3 0  9993
2 48768  87.9023  39.1539 0001941  64.0388 296.0942 13.15549514151926
ONEWEB-0230             
1 48769U 21045C   24195.93868122  .00000141  00000+0  34169-3 0  9997
2 48769  87.9021  39.1998 0001930  85.0442 275.0909 13.15547569152206
ONEWEB-0237             
1 48770U 21045D   24195.92759061  .00000048  00000+0  92800-4 0  9992
2 48770  87.9026  39.1347 0001853  72.7627 287.3706 13.15549132151920
